QIANFAN-65              
1 62795U 25016L   25249.18730135  .00000116  00000+0  16129-3 0  9992
2 62795  88.9773 113.1536 0012089 266.7868  93.1900 13.50967371 34074
QIANFAN-66              
1 62796U 25016M   25249.21608275  .00000130  00000+0  18246-3 0  9994
2 62796  88.9792 113.1016 0013183 261.5397  98.4260 13.50962593 34129
QIANFAN-67              
1 62797U 25016N   25249.22010479  .00000134  00000+0  18962-3 0  9998
2 62797  88.9782 113.1363 0013201 269.4071  90.5567 13.50971301 34097
QIANFAN-68              
1 62798U 25016P   25249.22422072  .00000125  00000+0  17529-3 0  9993
2 62798  88.9786 113.1804 0013812 267.3463  92.6107 13.50968758 34075
QIANFAN-69              
1 62799U 25016Q   25249.22838957  .00000108  00000+0  14961-3 0  9995
2 62799  88.9764 113.0675 0013997 268.4302  91.5246 13.50964153 34117
QIANFAN-70              
1 62800U 25016R   25249.24483670  .00000123  00000+0  17261-3 0  9991
2 62800  88.9785 113.1836 0013541 257.4459 102.5178 13.50968187 34072
QIANFAN-71              
1 62801U 25016S   25249.24080116  .00000114  00000+0  15891-3 0  9997
2 62801  88.9779 113.1695 0013934 272.3725  87.5831 13.50967755 34075
QIANFAN-72              
1 62802U 25016T   25249.23663479  .00000127  00000+0  17800-3 0  9992
2 62802  88.9769 113.1879 0017425 279.1522  80.7657 13.50963269 34064
